STARLINK-35730          
1 66273U 25247J   25321.50003471 -.02158661  00000+0 -33141-1 0  9990
2 66273  53.1596 356.8589 0001406  73.5851  23.1135 15.56968104  3888
STARLINK-35760          
1 66274U 25247K   25321.50003471 -.02042295  00000+0 -31209-1 0  9999
2 66274  53.1594 356.8548 0001370  64.4372  34.1652 15.56909926  3567
STARLINK-35752          
1 66275U 25247L   25321.50003471 -.02045166  00000+0 -31257-1 0  9993
2 66275  53.1592 356.8506 0001409  66.9040  33.6159 15.56910981  3561
STARLINK-35742          
1 66276U 25247M   25321.50003471 -.02045123  00000+0 -31255-1 0  9995
2 66276  53.1594 356.8467 0001392  66.2178  36.2179 15.56911686  3885
STARLINK-35708          
1 66277U 25247N   25321.50003471 -.02044036  00000+0 -31240-1 0  9992
2 66277  53.1592 356.8424 0001345  61.2916  43.0635 15.56909455  3884
STARLINK-35713          
1 66278U 25247P   25321.50003471 -.02048964  00000+0 -31320-1 0  9996
2 66278  53.1593 356.8347 0001378  59.5965  48.5910 15.56912898  3881
STARLINK-35724          
1 66279U 25247Q   25321.50003471 -.02050171  00000+0 -31340-1 0  9992
2 66279  53.1591 356.8299 0001293  59.8772  50.2269 15.56913779  3517
STARLINK-35726          
1 66280U 25247R   25321.50003471 -.02058570  00000+0 -31477-1 0  9996
2 66280  53.1590 356.8388 0001553  65.3601  40.9100 15.56917703  3565
STARLINK-35727          
1 66281U 25247S   25321.50003471 -.02046275  00000+0 -31275-1 0  9992
2 66281  53.1591 356.8260 0001408  67.3619  44.6599 15.56911499  3565
STARLINK-35776          
1 66282U 25247T   25321.50003471 -.02048150  00000+0 -31305-1 0  9991
2 66282  53.1593 356.8219 0001350  64.4008  49.5356 15.56913611  3561
STARLINK-35774          
1 66283U 25247U   25321.50003471 -.02053262  00000+0 -31391-1 0  9997
2 66283  53.1593 356.8182 0001423  64.0314  51.8241 15.56914866  3560
STARLINK-35830          
1 66284U 25247V   25321.50003471 -.02045111  00000+0 -31255-1 0  9991
2 66284  53.1592 356.8139 0001398  67.1041  50.6667 15.56911543  3562
