CCSDS_OMM_VERS = 2.0
CREATION_DATE  = 
ORIGINATOR     = 

OBJECT_NAME    = STARLINK-35730
OBJECT_ID      = 2025-247J
CENTER_NAME    = EARTH
REF_FRAME      = TEME
TIME_SYSTEM    = UTC
MEAN_ELEMENT_THEORY = SGP/SGP4

EPOCH          = 2025-11-17T12:00:02.998944
MEAN_MOTION    = 15.56968104
ECCENTRICITY   = .0001406
INCLINATION    = 53.1596
RA_OF_ASC_NODE = 356.8589
ARG_OF_PERICENTER = 73.5851
MEAN_ANOMALY   = 23.1135

EPHEMERIS_TYPE = 0
CLASSIFICATION_TYPE = U
NORAD_CAT_ID   = 66273
ELEMENT_SET_NO = 999
REV_AT_EPOCH   = 388
BSTAR          = -.33141E-1
MEAN_MOTION_DOT = -.2158661E-1
MEAN_MOTION_DDOT = 0

CCSDS_OMM_VERS = 2.0
CREATION_DATE  = 
ORIGINATOR     = 

OBJECT_NAME    = STARLINK-35760
OBJECT_ID      = 2025-247K
CENTER_NAME    = EARTH
REF_FRAME      = TEME
TIME_SYSTEM    = UTC
MEAN_ELEMENT_THEORY = SGP/SGP4

EPOCH          = 2025-11-17T12:00:02.998944
MEAN_MOTION    = 15.56909926
ECCENTRICITY   = .000137
INCLINATION    = 53.1594
RA_OF_ASC_NODE = 356.8548
ARG_OF_PERICENTER = 64.4372
MEAN_ANOMALY   = 34.1652

EPHEMERIS_TYPE = 0
CLASSIFICATION_TYPE = U
NORAD_CAT_ID   = 66274
ELEMENT_SET_NO = 999
REV_AT_EPOCH   = 356
BSTAR          = -.31209E-1
MEAN_MOTION_DOT = -.2042295E-1
MEAN_MOTION_DDOT = 0

CCSDS_OMM_VERS = 2.0
CREATION_DATE  = 
ORIGINATOR     = 

OBJECT_NAME    = STARLINK-35752
OBJECT_ID      = 2025-247L
CENTER_NAME    = EARTH
REF_FRAME      = TEME
TIME_SYSTEM    = UTC
MEAN_ELEMENT_THEORY = SGP/SGP4

EPOCH          = 2025-11-17T12:00:02.998944
MEAN_MOTION    = 15.56910981
ECCENTRICITY   = .0001409
INCLINATION    = 53.1592
RA_OF_ASC_NODE = 356.8506
ARG_OF_PERICENTER = 66.9040
MEAN_ANOMALY   = 33.6159

EPHEMERIS_TYPE = 0
CLASSIFICATION_TYPE = U
NORAD_CAT_ID   = 66275
ELEMENT_SET_NO = 999
REV_AT_EPOCH   = 356
BSTAR          = -.31257E-1
MEAN_MOTION_DOT = -.2045166E-1
MEAN_MOTION_DDOT = 0

CCSDS_OMM_VERS = 2.0
CREATION_DATE  = 
ORIGINATOR     = 

OBJECT_NAME    = STARLINK-35742
OBJECT_ID      = 2025-247M
CENTER_NAME    = EARTH
REF_FRAME      = TEME
TIME_SYSTEM    = UTC
MEAN_ELEMENT_THEORY = SGP/SGP4

EPOCH          = 2025-11-17T12:00:02.998944
MEAN_MOTION    = 15.56911686
ECCENTRICITY   = .0001392
INCLINATION    = 53.1594
RA_OF_ASC_NODE = 356.8467
ARG_OF_PERICENTER = 66.2178
MEAN_ANOMALY   = 36.2179

EPHEMERIS_TYPE = 0
CLASSIFICATION_TYPE = U
NORAD_CAT_ID   = 66276
ELEMENT_SET_NO = 999
REV_AT_EPOCH   = 388
BSTAR          = -.31255E-1
MEAN_MOTION_DOT = -.2045123E-1
MEAN_MOTION_DDOT = 0

CCSDS_OMM_VERS = 2.0
CREATION_DATE  = 
ORIGINATOR     = 

OBJECT_NAME    = STARLINK-35708
OBJECT_ID      = 2025-247N
CENTER_NAME    = EARTH
REF_FRAME      = TEME
TIME_SYSTEM    = UTC
MEAN_ELEMENT_THEORY = SGP/SGP4

EPOCH          = 2025-11-17T12:00:02.998944
MEAN_MOTION    = 15.56909455
ECCENTRICITY   = .0001345
INCLINATION    = 53.1592
RA_OF_ASC_NODE = 356.8424
ARG_OF_PERICENTER = 61.2916
MEAN_ANOMALY   = 43.0635

EPHEMERIS_TYPE = 0
CLASSIFICATION_TYPE = U
NORAD_CAT_ID   = 66277
ELEMENT_SET_NO = 999
REV_AT_EPOCH   = 388
BSTAR          = -.3124E-1
MEAN_MOTION_DOT = -.2044036E-1
MEAN_MOTION_DDOT = 0

CCSDS_OMM_VERS = 2.0
CREATION_DATE  = 
ORIGINATOR     = 

OBJECT_NAME    = STARLINK-35713
OBJECT_ID      = 2025-247P
CENTER_NAME    = EARTH
REF_FRAME      = TEME
TIME_SYSTEM    = UTC
MEAN_ELEMENT_THEORY = SGP/SGP4

EPOCH          = 2025-11-17T12:00:02.998944
MEAN_MOTION    = 15.56912898
ECCENTRICITY   = .0001378
INCLINATION    = 53.1593
RA_OF_ASC_NODE = 356.8347
ARG_OF_PERICENTER = 59.5965
MEAN_ANOMALY   = 48.5910

EPHEMERIS_TYPE = 0
CLASSIFICATION_TYPE = U
NORAD_CAT_ID   = 66278
ELEMENT_SET_NO = 999
REV_AT_EPOCH   = 388
BSTAR          = -.3132E-1
MEAN_MOTION_DOT = -.2048964E-1
MEAN_MOTION_DDOT = 0

CCSDS_OMM_VERS = 2.0
CREATION_DATE  = 
ORIGINATOR     = 

OBJECT_NAME    = STARLINK-35724
OBJECT_ID      = 2025-247Q
CENTER_NAME    = EARTH
REF_FRAME      = TEME
TIME_SYSTEM    = UTC
MEAN_ELEMENT_THEORY = SGP/SGP4

EPOCH          = 2025-11-17T12:00:02.998944
MEAN_MOTION    = 15.56913779
ECCENTRICITY   = .0001293
INCLINATION    = 53.1591
RA_OF_ASC_NODE = 356.8299
ARG_OF_PERICENTER = 59.8772
MEAN_ANOMALY   = 50.2269

EPHEMERIS_TYPE = 0
CLASSIFICATION_TYPE = U
NORAD_CAT_ID   = 66279
ELEMENT_SET_NO = 999
REV_AT_EPOCH   = 351
BSTAR          = -.3134E-1
MEAN_MOTION_DOT = -.2050171E-1
MEAN_MOTION_DDOT = 0

CCSDS_OMM_VERS = 2.0
CREATION_DATE  = 
ORIGINATOR     = 

OBJECT_NAME    = STARLINK-35726
OBJECT_ID      = 2025-247R
CENTER_NAME    = EARTH
REF_FRAME      = TEME
TIME_SYSTEM    = UTC
MEAN_ELEMENT_THEORY = SGP/SGP4

EPOCH          = 2025-11-17T12:00:02.998944
MEAN_MOTION    = 15.56917703
ECCENTRICITY   = .0001553
INCLINATION    = 53.1590
RA_OF_ASC_NODE = 356.8388
ARG_OF_PERICENTER = 65.3601
MEAN_ANOMALY   = 40.9100

EPHEMERIS_TYPE = 0
CLASSIFICATION_TYPE = U
NORAD_CAT_ID   = 66280
ELEMENT_SET_NO = 999
REV_AT_EPOCH   = 356
BSTAR          = -.31477E-1
MEAN_MOTION_DOT = -.205857E-1
MEAN_MOTION_DDOT = 0

CCSDS_OMM_VERS = 2.0
CREATION_DATE  = 
ORIGINATOR     = 

OBJECT_NAME    = STARLINK-35727
OBJECT_ID      = 2025-247S
CENTER_NAME    = EARTH
REF_FRAME      = TEME
TIME_SYSTEM    = UTC
MEAN_ELEMENT_THEORY = SGP/SGP4

EPOCH          = 2025-11-17T12:00:02.998944
MEAN_MOTION    = 15.56911499
ECCENTRICITY   = .0001408
INCLINATION    = 53.1591
RA_OF_ASC_NODE = 356.8260
ARG_OF_PERICENTER = 67.3619
MEAN_ANOMALY   = 44.6599

EPHEMERIS_TYPE = 0
CLASSIFICATION_TYPE = U
NORAD_CAT_ID   = 66281
ELEMENT_SET_NO = 999
REV_AT_EPOCH   = 356
BSTAR          = -.31275E-1
MEAN_MOTION_DOT = -.2046275E-1
MEAN_MOTION_DDOT = 0

CCSDS_OMM_VERS = 2.0
CREATION_DATE  = 
ORIGINATOR     = 

OBJECT_NAME    = STARLINK-35776
OBJECT_ID      = 2025-247T
CENTER_NAME    = EARTH
REF_FRAME      = TEME
TIME_SYSTEM    = UTC
MEAN_ELEMENT_THEORY = SGP/SGP4

EPOCH          = 2025-11-17T12:00:02.998944
MEAN_MOTION    = 15.56913611
ECCENTRICITY   = .000135
INCLINATION    = 53.1593
RA_OF_ASC_NODE = 356.8219
ARG_OF_PERICENTER = 64.4008
MEAN_ANOMALY   = 49.5356

EPHEMERIS_TYPE = 0
CLASSIFICATION_TYPE = U
NORAD_CAT_ID   = 66282
ELEMENT_SET_NO = 999
REV_AT_EPOCH   = 356
BSTAR          = -.31305E-1
MEAN_MOTION_DOT = -.204815E-1
MEAN_MOTION_DDOT = 0

CCSDS_OMM_VERS = 2.0
CREATION_DATE  = 
ORIGINATOR     = 

OBJECT_NAME    = STARLINK-35774
OBJECT_ID      = 2025-247U
CENTER_NAME    = EARTH
REF_FRAME      = TEME
TIME_SYSTEM    = UTC
MEAN_ELEMENT_THEORY = SGP/SGP4

EPOCH          = 2025-11-17T12:00:02.998944
MEAN_MOTION    = 15.56914866
ECCENTRICITY   = .0001423
INCLINATION    = 53.1593
RA_OF_ASC_NODE = 356.8182
ARG_OF_PERICENTER = 64.0314
MEAN_ANOMALY   = 51.8241

EPHEMERIS_TYPE = 0
CLASSIFICATION_TYPE = U
NORAD_CAT_ID   = 66283
ELEMENT_SET_NO = 999
REV_AT_EPOCH   = 356
BSTAR          = -.31391E-1
MEAN_MOTION_DOT = -.2053262E-1
MEAN_MOTION_DDOT = 0

CCSDS_OMM_VERS = 2.0
CREATION_DATE  = 
ORIGINATOR     = 

OBJECT_NAME    = STARLINK-35830
OBJECT_ID      = 2025-247V
CENTER_NAME    = EARTH
REF_FRAME      = TEME
TIME_SYSTEM    = UTC
MEAN_ELEMENT_THEORY = SGP/SGP4

EPOCH          = 2025-11-17T12:00:02.998944
MEAN_MOTION    = 15.56911543
ECCENTRICITY   = .0001398
INCLINATION    = 53.1592
RA_OF_ASC_NODE = 356.8139
ARG_OF_PERICENTER = 67.1041
MEAN_ANOMALY   = 50.6667

EPHEMERIS_TYPE = 0
CLASSIFICATION_TYPE = U
NORAD_CAT_ID   = 66284
ELEMENT_SET_NO = 999
REV_AT_EPOCH   = 356
BSTAR          = -.31255E-1
MEAN_MOTION_DOT = -.2045111E-1
MEAN_MOTION_DDOT = 0

